satname,norad_id,inclination_deg,eccentricity,mean_motion_rev_per_day,perigee_km,apogee_km,l1,l2
STARLINK-1008,44714,53.0555,0.000149,15.06383983,546.2287639217948,548.2925324209491,1 44714U 19074B   26005.47636209  .00017044  00000+0  11609-2 0  9995,2 44714  53.0555 110.3964 0001490  97.9518 262.1640 15.06383983339228
STARLINK-1012,44718,53.056,0.000119,15.06401376,546.3832247231248,548.0314566762108,1 44718U 19074F   26005.52057718 -.00000367  00000+0 -57445-5 0  9990,2 44718  53.0560 110.1948 0001190  88.2385 271.8740 15.06401376339225
STARLINK-1017,44723,53.0522,0.0002599,15.19489,505.5943556115217,509.1734493766389,1 44723U 19074L   26005.55112412  .00056313  00000+0  26152-2 0  9990,2 44723  53.0522 101.6380 0002599 137.9514 222.1681 15.19489000339355
STARLINK-1019,44724,53.0491,0.0006633,15.62027535,377.3172122060014,386.28494606178083,1 44724U 19074M   26005.66668981  .00203690  00000+0  22357-2 0  9995,2 44724  53.0491  89.0899 0006633 328.3784  79.8554 15.62027535  5897
STARLINK-1020,44725,53.0574,0.0001588,15.06388519,546.1469948343674,548.3464967120244,1 44725U 19074N   26005.58876353 -.00000734  00000+0 -30413-4 0  9991,2 44725  53.0574 129.8928 0001588  96.7257 263.3912 15.06388519338955
STARLINK-1031,44736,53.0449,0.0002382,15.66192051,368.2052511821785,371.41997437770715,1 44736U 19074Z   26005.66668981  .00125973  00000+0  11873-2 0  9996,2 44736  53.0449  75.2697 0002382  13.5583 316.7607 15.66192051  5996
STARLINK-1036,44741,53.0538,0.0001643,15.17822917,511.2895921189802,513.5538297113862,1 44741U 19074AE  26005.66668981  .01934286  00000+0  85344-1 0  9991,2 44741  53.0538 129.2136 0001643  88.9090 342.5025 15.17822917  5748
STARLINK-1039,44744,53.0485,0.0002152,15.16565475,514.7463328408703,517.713668397937,1 44744U 19074AH  26005.64675998  .00017964  00000+0  92289-3 0  9990,2 44744  53.0485 143.6811 0002152  66.9863 293.1357 15.16565475338775
STARLINK-1042,44747,53.0456,0.0002548,15.46465721,425.3407750399301,428.80871094415943,1 44747U 19074AL  26005.51571942  .00026905  00000+0  54079-3 0  9993,2 44747  53.0456  37.1104 0002548   8.2042 351.9005 15.46465721340283
STARLINK-1043,44748,53.0549,0.0001646,15.47328558,423.42492574742573,425.66436854566564,1 44748U 19074AM  26005.63271606  .00036082  00000+0  70038-3 0  9991,2 44748  53.0549 137.4525 0001646 229.4780 130.6084 15.47328558338869
STARLINK-1046,44751,53.0556,0.0001575,15.25975676,486.77583347546715,488.9386216571511,1 44751U 19074AQ  26005.66668981  .01707636  00000+0  60083-1 0  9992,2 44751  53.0556 148.7094 0001575  87.4460 314.4347 15.25975676  5797
STARLINK-1047,44752,53.0715,0.0003559,15.31000454,470.3878416609123,475.2643571950839,1 44752U 19074AR  26005.46821102  .00013093  00000+0  44234-3 0  9995,2 44752  53.0715  80.9917 0003559  38.6642 321.4612 15.31000454339658
STARLINK-1048,44753,53.0545,0.0001178,15.23353925,494.9229887934862,496.5424725020266,1 44753U 19074AS  26005.66668981  .01799005  00000+0  68095-1 0  9996,2 44753  53.0545 109.0113 0001178  99.3825   6.1637 15.23353925  5843
STARLINK-1053,44758,53.0376,0.0002755,15.7152186,352.6920283602385,356.40173717964535,1 44758U 19074AX  26005.48120430  .00108032  00000+0  82038-3 0  9991,2 44758  53.0376  40.6728 0002755  27.9147 332.2018 15.71521860340215
STARLINK-1060,44765,53.0434,0.0004264,15.85796043,311.230647785781,316.9377740344453,1 44765U 19074BE  26005.66668981  .00210884  00000+0  82895-3 0  9997,2 44765  53.0434  82.4151 0004264 302.5422 204.5418 15.85796043  6044
STARLINK-1063,44768,53.0545,0.0001267,15.06410481,546.3019977767044,548.056872961427,1 44768U 19074BH  26005.66064273  .00005642  00000+0  39721-3 0  9998,2 44768  53.0545 149.5684 0001267  92.4474 267.6660 15.06410481338700
STARLINK-1067,44771,53.0554,9.47e-05,15.4288931,436.94153698726586,438.2324351102234,1 44771U 19074BL  26005.66668981  .00049684  00000+0  11161-2 0  9999,2 44771  53.0554 146.4909 0000947  60.8912 158.3488 15.42889310  5650
STARLINK-1068,44772,53.0531,0.000469,15.43174913,433.54983351472674,439.94219378152866,1 44772U 19074BM  26005.66668981  .00169045  00000+0  36807-2 0  9998,2 44772  53.0531 124.3953 0004690 351.8649 268.9515 15.43174913  5655
STARLINK-1112,44925,53.0447,0.0007767,15.72571983,346.32232668957386,356.7762213476344,1 44925U 20001M   26005.66668981  .00131139  00000+0  94778-3 0  9995,2 44925  53.0447 200.9807 0007767 122.8152 179.7028 15.72571983  6023
STARLINK-1114,44927,53.0546,8.72e-05,15.23005299,496.1821805955515,497.3811664122104,1 44927U 20001P   26005.66668981  .01892452  00000+0  72013-1 0  9996,2 44927  53.0546 268.8658 0000872 100.5861 181.0073 15.23005299  5845
STARLINK-1123,44930,53.052,0.0001201,15.0640433,546.3665543757133,548.0300199116855,1 44930U 20001S   26005.42842879  .00002763  00000+0  20431-3 0  9990,2 44930  53.0520 270.6084 0001201  94.5299 265.5828 15.06404330330318
STARLINK-1144,44933,53.0359,0.0002459,15.8428707,316.6862649581817,319.97958886823744,1 44933U 20001V   26005.66668981  .00305242  00000+0  12751-2 0  9992,2 44933  53.0359 173.6494 0002459 289.8692 335.9494 15.84287070  5844
STARLINK-1094,44941,53.0528,0.0001165,15.06400998,546.4016964630464,548.0153019643631,1 44941U 20001AD  26005.37498333  .00003401  00000+0  24707-3 0  9998,2 44941  53.0528 250.8515 0001165  96.8896 263.2225 15.06400998330585
STARLINK-1122,44949,53.0549,0.0001263,15.06393437,546.3569985977047,548.1063467244185,1 44949U 20001AM  26004.99902684  .00000829  00000+0  74557-4 0  9992,2 44949  53.0549 252.5359 0001263  87.8203 272.2931 15.06393437330529
STARLINK-1080,44961,53.0534,0.0001172,15.38168465,450.72500560030676,452.3258784767204,1 44961U 20001AZ  26005.66668981  .00036509  00000+0  96276-3 0  9995,2 44961  53.0534 227.2700 0001172 105.3242  14.8109 15.38168465  5593
STARLINK-1090,44968,53.0547,0.0001373,15.06392908,546.2824406407553,548.1841473234826,1 44968U 20001BG  26005.33260204  .00000526  00000+0  54190-4 0  9992,2 44968  53.0547 231.0389 0001373  89.9555 270.1591 15.06392908330866
STARLINK-1132,45044,53.0733,0.0001795,15.11245142,531.1611420946683,533.6420254462428,1 45044U 20006A   26005.66668981  .01415076  00000+0  76169-1 0  9991,2 45044  53.0733 189.4987 0001795 111.3433 146.2047 15.11245142  5740
STARLINK-1131,45047,53.0547,0.0001605,15.06412621,546.0613644258983,548.2843888963062,1 45047U 20006D   26005.26815610 -.00001777  00000+0 -10036-3 0  9996,2 45047  53.0547 211.8701 0001605  92.0775 268.0397 15.06412621326899
STARLINK-1134,45048,53.037,0.0004378,15.35147198,457.4893631448467,463.47725908926077,1 45048U 20006E   26005.46526269  .00105476  00000+0  30159-2 0  9994,2 45048  53.0370 177.0881 0004378  78.1067 282.0425 15.35147198327407
STARLINK-1156,45054,53.0565,0.0001311,15.06389743,546.3350770271136,548.1509116616307,1 45054U 20006L   26005.30496060  .00000640  00000+0  61878-4 0  9990,2 45054  53.0565 211.1636 0001311  93.0531 267.0608 15.06389743326906
STARLINK-1159,45057,53.0509,0.0005751,15.61732576,378.76407313602977,386.5403328773282,1 45057U 20006P   26005.66668981  .00163857  00000+0  18296-2 0  9999,2 45057  53.0509 187.1267 0005751 151.3067 163.9999 15.61732576  5945
STARLINK-1166,45060,53.0537,0.0001569,15.09642409,536.2068013028675,538.3768628703756,1 45060U 20006S   26005.66668981  .01345003  00000+0  75986-1 0  9997,2 45060  53.0537 209.5013 0001569  66.5612 335.3647 15.09642409  5801
STARLINK-1169,45061,53.0547,0.0001686,15.06391284,546.0706530809966,548.4058896224969,1 45061U 20006T   26005.53716954  .00000810  00000+0  73314-4 0  9997,2 45061  53.0547 210.1227 0001686  88.6956 271.4226 15.06391284326947
STARLINK-1171,45062,53.0513,0.0014099,15.44069203,424.50981546165985,443.71900198397634,1 45062U 20006U   26005.66668981  .00091419  00000+0  19491-2 0  9997,2 45062  53.0513 192.3905 0014099 139.9948  58.6858 15.44069203  5932
STARLINK-1133,45064,53.056,0.000188,15.0738212,542.901736072773,545.5045359639162,1 45064U 20006W   26005.60057452  .00123533  00000+0  79542-2 0  9994,2 45064  53.0560 189.8272 0001880 103.5442 256.5757 15.07382120327236
STARLINK-1167,45071,53.0727,0.0001953,15.10773528,532.4897624091445,535.1895804970136,1 45071U 20006AD  26005.66668981  .01258943  00000+0  69336-1 0  9997,2 45071  53.0727 189.5005 0001953 105.9629 129.1345 15.10773528  5707
STARLINK-1168,45072,53.067,0.0002243,15.09400626,536.4790136530855,539.581606308343,1 45072U 20006AE  26005.66668981  .01398907  00000+0  79287-1 0  9999,2 45072  53.0670 189.5224 0002243  95.9048 106.6441 15.09400626  5851
STARLINK-1172,45074,53.0563,0.0002231,15.06668678,544.8433593607278,547.9330825143097,1 45074U 20006AG  26005.64194781  .00037057  00000+0  24756-2 0  9998,2 45074  53.0563 189.6502 0002231 112.2396 247.8830 15.06668678327239
STARLINK-1153,45080,53.0738,0.0001551,15.11032287,531.9786225033395,534.1224728806328,1 45080U 20006AN  26005.66668981  .01378722  00000+0  74819-1 0  9997,2 45080  53.0738 189.5005 0001551 105.0926 170.4109 15.11032287  5791
STARLINK-1151,45081,53.0535,0.0001699,15.45882022,427.6311608903834,429.94415388896414,1 45081U 20006AP  26005.66668981  .00106631  00000+0  21387-2 0  9998,2 45081  53.0535 183.8427 0001699 208.3908 201.5746 15.45882022  5859
STARLINK-1185,45087,53.0564,0.0001182,15.0638849,546.4282542858946,548.0654150244063,1 45087U 20006AV  26005.64774508  .00003010  00000+0  22095-3 0  9990,2 45087  53.0564 169.6268 0001182 102.1081 258.0041 15.06388490327525
STARLINK-1183,45088,53.0564,0.0001238,15.06404797,546.3394995318304,548.0542121945409,1 45088U 20006AW  26005.60349131  .00000122  00000+0  27093-4 0  9992,2 45088  53.0564 169.8252 0001238  45.6451 314.4639 15.06404797327513
STARLINK-1152,45096,53.0434,0.000287,15.3111947,470.5049471887005,474.43719622185927,1 45096U 20006BE  26005.61996968  .00102329  00000+0  33234-2 0  9992,2 45096  53.0434 142.2167 0002870  73.2702 286.8613 15.31119470327903
